STARLINK-3642           
1 51989U 22025AK  22084.83334491  .00087027  00000+0  61968-3 0  9990
2 51989  53.2181  59.2161 0001407  78.3543 106.7517 15.73139450  3839
STARLINK-3657           
1 51990U 22025AL  22084.83334491  .00000637  00000+0  89517-5 0  9996
2 51990  53.2185  59.2090 0001122  83.5096 105.4087 15.73203902  3833
STARLINK-3652           
1 51991U 22025AM  22085.16667824  .00032155  00000+0  23278-3 0  9993
2 51991  53.2183  57.5659 0001311  72.1697 203.0198 15.73186268  3883
STARLINK-3643           
1 51992U 22025AN  22085.16667824 -.00000439  00000+0  12917-5 0  9995
2 51992  53.2185  57.5576 0001384  84.2109 195.4945 15.73212376  3903
STARLINK-3648           
1 51993U 22025AP  22085.16667824  .00004611  00000+0  37235-4 0  9990
2 51993  53.2181  57.5619 0001207  67.9617 209.1842 15.73208921  3904
STARLINK-3647           
1 51994U 22025AQ  22085.25001157 -.00008831  00000+0 -58520-4 0  9992
2 51994  53.2189  57.1447 0001009  72.7423 319.8753 15.73220326  3911
STARLINK-3636           
1 51995U 22025AR  22084.58334491  .00007128  00000+0  55202-4 0  9998
2 51995  53.2192  60.4461 0001007  74.1422 138.6814 15.73181345  2744
STARLINK-3538           
1 51996U 22025AS  22085.16667824 -.00033510  00000+0 -23528-3 0  9994
2 51996  53.2187  57.5550 0001292  70.1341 210.8979 15.73201422  3898
STARLINK-3589           
1 51997U 22025AT  22085.16667824  .00029077  00000+0  21140-3 0  9994
2 51997  53.2183  57.5586 0000783  78.8941 200.1873 15.73141326  3889
STARLINK-3618           
1 51998U 22025AU  22084.83334491  .00026057  00000+0  18931-3 0  9998
2 51998  53.2188  59.2006 0001296  84.9986 108.2571 15.73222954  3822
STARLINK-3667           
1 51999U 22025AV  22085.16667824 -.00069872  00000+0 -49654-3 0  9995
2 51999  53.2185  57.5533 0001152  71.2906 210.3535 15.73248230  3884
STARLINK-3653           
1 52000U 22025AW  22085.16667824 -.00015253  00000+0 -10446-3 0  9990
2 52000  53.2189  57.5502 0001385  83.8278 199.7652 15.73198358  3905
STARLINK-3659           
1 52001U 22025AX  22085.16667824 -.00032982  00000+0 -23145-3 0  9999
2 52001  53.2184  57.5506 0001055  77.9322 205.0533 15.73205604  3905
STARLINK-3668           
1 52002U 22025AY  22085.16667824 -.00002074  00000+0 -10364-4 0  9999
2 52002  53.2188  57.5491 0001163  81.3235 202.9022 15.73206295  3888
STARLINK-3654           
1 52003U 22025AZ  22085.16667824 -.00002798  00000+0 -15513-4 0  9994
2 52003  53.2186  57.5471 0001175  67.5974 217.1916 15.73219879  3886
FALCON 9 DEB            
1 52004U 22025BA  22084.77056015  .00224655  30192-4  63912-3 0  9996
2 52004  53.2280  58.4567 0005251 288.9776  71.0684 15.92906486  2747
FALCON 9 DEB            
1 52005U 22025BB  22084.32627782  .00251776  35342-4  69087-3 0  9998
2 52005  53.2251  60.6553 0005584 260.5566  99.4832 15.93557732  2676
FALCON 9 DEB            
1 52006U 22025BC  22084.62776264  .00251958  35873-4  63654-3 0  9997
2 52006  53.2217  58.9670 0009532 281.1308  78.8650 15.95046742  2720
FALCON 9 DEB            
1 52007U 22025BD  22084.31194489  .00229915  31660-4  58529-3 0  9990
2 52007  53.2215  60.5479 0009980 263.8020  96.1872 15.94920509  2674
2022-026A               
1 52008U 22026A   22085.00353882  .00008915  00000+0  41375-3 0  9998
2 52008  97.4887  86.0835 0047674 235.8570 123.8139 15.19241104  1576
2022-026B               
1 52009U 22026B   22084.57849291  .00006947  00000+0  38554-3 0  9992
2 52009  97.5035  85.5891 0027619 200.0717 159.9430 15.13733926  1490
2022-026C               
1 52010U 22026C   22085.17382849  .00005977  00000+0  33293-3 0  9999
2 52010  97.5047  86.1747 0027044 200.5433 159.4713 15.13680021  1591
2022-026D               
1 52011U 22026D   22082.46363030 -.00000067  00000+0  00000+0 0  9992
2 52011  97.5007  83.5048 0026866 207.5582 152.4339 15.13572263  1175
2022-026E               
1 52012U 22026E   22084.97525465  .00007829  00000+0  43442-3 0  9996
2 52012  97.5049  85.9812 0026442 202.4502 157.5574 15.13727531  1563
2022-026F               
1 52013U 22026F   22084.24800817  .00006755  00000+0  37492-3 0  9999
2 52013  97.5036  85.2630 0028390 198.4421 161.5784 15.13726549  1442
2022-026G               
1 52014U 22026G   22084.97516534  .00007586  00000+0  42060-3 0  9990
2 52014  97.5036  85.9795 0027665 199.6483 160.3684 15.13738620  1558
2022-026H               
1 52015U 22026H   22084.51237387  .00006597  00000+0  36633-3 0  9997
2 52015  97.5052  85.5245 0027739 200.2488 159.7646 15.13733250  1485
2022-026J               
1 52016U 22026J   22084.51235666  .00006165  00000+0  34259-3 0  9999
2 52016  97.5037  85.5238 0027565 200.2766 159.7373 15.13736490  1483
2022-026K               
1 52017U 22026K   22084.97520120  .00004841  00000+0  27009-3 0  9996
2 52017  97.5033  85.9795 0027537 198.9842 161.0366 15.13707392  1554
2022-026L               
1 52018U 22026L   22085.04102755  .00007354  00000+0  40738-3 0  9992
2 52018  97.5047  86.0457 0027735 198.6365 161.3853 15.13779199  1563
2022-026M               
1 52019U 22026M   22084.57832435  .00008638  00000+0  47784-3 0  9999
2 52019  97.5048  85.5899 0027664 200.2013 159.8126 15.13776675  1459
2022-026N               
1 52020U 22026N   22084.51235985  .00006676  00000+0  37070-3 0  9999
2 52020  97.5040  85.5239 0027529 200.4720 159.5410 15.13736110  1439
2022-026P               
1 52021U 22026P   22084.51232421  .00007565  00000+0  41908-3 0  9995
2 52021  97.5038  85.5238 0028311 199.1486 160.8684 15.13750022  1356
2022-026Q               
1 52022U 22026Q   22084.51231987  .00006738  00000+0  37399-3 0  9992
2 52022  97.5050  85.5247 0027637 200.5102 159.5022 15.13743233  1350
2022-026R               
1 52023U 22026R   22084.51231191  .00006681  00000+0  37083-3 0  9997
2 52023  97.5051  85.5246 0027652 200.4919 159.5206 15.13744215  1358
2022-026S               
1 52024U 22026S   22084.38002727  .00007615  00000+0  42153-3 0  9996
2 52024  97.5048  85.3947 0028749 198.5289 161.4898 15.13764774  1335
2022-026T               
1 52025U 22026T   22085.04107521  .00007800  00000+0  43196-3 0  9993
2 52025  97.5047  86.0456 0027702 198.6718 161.3500 15.13769341  1439
2022-026U               
1 52026U 22026U   22084.57831592  .00007836  00000+0  43387-3 0  9994
2 52026  97.5046  85.5894 0027668 200.0577 159.9570 15.13775273  1274
2022-026V               
1 52027U 22026V   22085.17338963  .00007772  00000+0  43065-3 0  9998
2 52027  97.5043  86.1763 0027614 198.0929 161.9322 15.13749827  1366
YAOGAN-34 02            
1 52084U 22027A   22084.51843225 -.00000055  00000+0  59453-4 0  9998
2 52084  63.3975 208.6501 0012965 263.6332  96.3192 13.46728706  1111
CZ-4C R/B               
1 52085U 22027B   22085.06449151  .00000031  00000+0  14898-3 0  9996
2 52085  63.3981 206.4980 0102142  42.4990 318.3870 13.65322451  1204
SOYUZ-MS 21             
1 52086U 22028A   22084.12316441  .00006730  00000+0  12782-3 0  9991
2 52086  51.6446  32.9367 0004076 310.4490 170.3824 15.49536326332149
STARLINK-3537           
1 52088U 22029A   22084.58334491  .00134391  17490-4  48186-3 0  9997
2 52088  53.2171 112.3402 0010162 306.7343 241.0821 15.88520421  1749
STARLINK-3722           
1 52089U 22029B   22085.25001157 -.00874759  00000+0 -58954-2 0  9991
2 52089  53.2176 109.2117 0001184  64.1978 218.0127 15.76806835  2361
STARLINK-3712           
1 52090U 22029C   22084.83334491 -.00873630  00000+0 -56672-2 0  9998
2 52090  53.2175 111.2831 0001271  43.2761  32.9815 15.77653584  2306
STARLINK-3713           
1 52091U 22029D   22084.83334491 -.00873948  00000+0 -56805-2 0  9999
2 52091  53.2175 111.2841 0001106  55.4980  19.9668 15.77611986  2304
STARLINK-3716           
1 52092U 22029E   22084.83334491 -.00873882  00000+0 -56745-2 0  9990
2 52092  53.2175 111.2838 0001163  51.6224  24.2372 15.77633080  2303
STARLINK-3673           
1 52093U 22029F   22084.83334491 -.00873788  00000+0 -56472-2 0  9993
2 52093  53.2175 111.2791 0001122  52.9431  24.8859 15.77737738  2302
STARLINK-3714           
1 52094U 22029G   22084.83334491 -.00873925  00000+0 -56642-2 0  9996
2 52094  53.2175 111.2820 0001196  49.5413  27.1148 15.77674270  2307
STARLINK-3701           
1 52095U 22029H   22084.83334491 -.00873913  00000+0 -56388-2 0  9991
2 52095  53.2175 111.2774 0001007  68.6113  10.0385 15.77775272  2304
STARLINK-3717           
1 52096U 22029J   22084.58334491 -.00883837  00000+0 -39418-2 0  9995
2 52096  53.2172 112.3677 0002349 272.1334 265.7271 15.85650134  1785
STARLINK-3676           
1 52097U 22029K   22085.16667824  .00097825  00000+0  34237-3 0  9997
2 52097  53.2169 109.3944 0009276 308.1792 333.0262 15.88459007  2351
STARLINK-3665           
1 52098U 22029L   22084.83334491 -.00873828  00000+0 -56431-2 0  9998
2 52098  53.2175 111.2785 0000966  83.4315 354.8103 15.77756351  2305
STARLINK-3662           
1 52099U 22029M   22085.16667824  .00103086  00000+0  35745-3 0  9991
2 52099  53.2166 109.3883 0009336 312.9256 331.1194 15.88624210  2350
STARLINK-3702           
1 52100U 22029N   22084.83334491 -.00873901  00000+0 -56335-2 0  9997
2 52100  53.2175 111.2767 0000974  81.5147 357.5272 15.77796058  2305
STARLINK-3703           
1 52101U 22029P   22084.83334491 -.00873874  00000+0 -56068-2 0  9990
2 52101  53.2175 111.2722 0000967  85.1228 355.8579 15.77900543  2306
STARLINK-3709           
1 52102U 22029Q   22084.83334491 -.00873963  00000+0 -56285-2 0  9991
2 52102  53.2175 111.2758 0001178  49.9432  29.4995 15.77815660  2307
STARLINK-3705           
1 52103U 22029R   22084.83334491 -.00873997  00000+0 -55979-2 0  9998
2 52103  53.2175 111.2705 0000968  85.5192 356.2612 15.77939125  2305
STARLINK-3693           
1 52104U 22029S   22085.16667824  .00094571  00000+0  34344-3 0  9990
2 52104  53.2170 109.4182 0008339 293.1636 336.5113 15.87740602  2352
